ONEWEB-0451             
1 51643U 22012X   23166.70385739  .00000007  00000+0 -16008-4 0  9992
2 51643  87.9174 223.9250 0002412  87.7171 272.4237 13.17650603 70433
ONEWEB-0452             
1 51644U 22012Y   23166.70164005  .00000086  00000+0  18864-3 0  9991
2 51644  87.9171 223.9060 0002698  97.6041 262.5397 13.17646811 70446
ONEWEB-0455             
1 51645U 22012Z   23166.53857010  .00000319  00000+0  13457-3 0  9990
2 51645  87.5346 221.1354 0019542  96.8940 263.4474 14.22512541 70038
ONEWEB-0456             
1 51646U 22012AA  23166.32190027  .00000440  00000+0  12254-2 0  9994
2 51646  87.8821 254.3253 0001725  92.8024 267.3300 13.10370972 65568
ONEWEB-0457             
1 51647U 22012AB  23166.30006550  .00000451  00000+0  12545-2 0  9995
2 51647  87.8843 254.3194 0002538 108.8602 251.2801 13.10377727 65563
ONEWEB-0458             
1 51648U 22012AC  23166.32035342  .00000645  00000+0  18113-2 0  9991
2 51648  87.8836 254.3262 0002224  87.8279 272.3103 13.10369611 65528
ONEWEB-0461             
1 51649U 22012AD  23166.72172279 -.00000599  00000+0 -15756-2 0  9997
2 51649  87.9170 223.8336 0002324 101.6586 258.4807 13.17647594 70653
ONEWEB-0463             
1 51650U 22012AE  23166.25048767 -.00000010  00000+0 -59013-4 0  9995
2 51650  87.9172 224.0105 0002279 102.9517 257.1869 13.17648476 69080
ONEWEB-0464             
1 51651U 22012AF  23166.31721835  .00000627  00000+0  17601-2 0  9994
2 51651  87.8839 254.3153 0001709  84.8706 275.2616 13.10372779 65545
ONEWEB-0468             
1 51652U 22012AG  23166.32344530  .00000354  00000+0  97682-3 0  9994
2 51652  87.8837 254.3071 0002046  94.1260 266.0101 13.10372578 65529
ONEWEB-0473             
1 51653U 22012AH  23166.30943024  .00000646  00000+0  18137-2 0  9997
2 51653  87.8839 254.3148 0002091  89.6648 270.4719 13.10374034 65529
ONEWEB-0474             
1 51654U 22012AJ  23166.30163894  .00000508  00000+0  14176-2 0  9993
2 51654  87.8809 254.2691 0001921  87.0431 273.0916 13.10376293 65518
ONEWEB-0475             
1 51655U 22012AK  23166.18349562  .00000068  00000+0  14151-3 0  9993
2 51655  87.9171 223.9994 0002419  85.6832 274.4576 13.17647852 69096
ONEWEB-0490             
1 54113U 22138A   23166.53539566  .00000024  00000+0  28458-4 0  9996
2 54113  87.9209 163.3545 0002054  81.9386 278.1980 13.19728085 32053
ONEWEB-0492             
1 54114U 22138B   23166.55859051  .00000157  00000+0  35910-3 0  9990
2 54114  87.9187 163.3418 0002038  74.9630 285.1728 13.19726429 32063
ONEWEB-0495             
1 54115U 22138C   23166.53962735  .00000065  00000+0  13012-3 0  9990
2 54115  87.9254 163.3366 0002262  76.0966 284.0418 13.19726375 32047
ONEWEB-0497             
1 54116U 22138D   23166.70177329  .00000313  00000+0  74901-3 0  9997
2 54116  87.9256 163.2935 0002159  81.2479 278.8898 13.19722411 32920
ONEWEB-0499             
1 54117U 22138E   23166.68494304  .00000091  00000+0  19412-3 0  9999
2 54117  87.9194 163.3320 0002732  89.2060 270.9386 13.19726603 32935
ONEWEB-0500             
1 54118U 22138F   23166.53752182  .00000497  00000+0  12100-2 0  9991
2 54118  87.9206 163.3189 0002166  87.6465 272.4916 13.19726525 32057
ONEWEB-0501             
1 54119U 22138G   23166.71863546  .00000032  00000+0  47642-4 0  9995
2 54119  87.9215 163.2917 0002419  70.1190 290.0204 13.19726463 32922
ONEWEB-0502             
1 54120U 22138H   23166.55225609  .00000152  00000+0  34794-3 0  9997
2 54120  87.9184 163.3227 0002333  76.7748 283.3645 13.19727095 32050
ONEWEB-0503             
1 54121U 22138J   23166.54174460  .00000056  00000+0  10725-3 0  9996
2 54121  87.9220 163.3358 0002328  81.5628 278.5768 13.19724881 32043
ONEWEB-0504             
1 54122U 22138K   23166.52910049  .00000063  00000+0  12592-3 0  9998
2 54122  87.9208 163.3719 0002493  83.3388 276.8028 13.19726455 32057
ONEWEB-0505             
1 54123U 22138L   23166.52485828 -.00000376  00000+0 -97029-3 0  9998
2 54123  87.9202 163.3249 0002564  85.3421 274.8005 13.19736015 32033
ONEWEB-0506             
1 54124U 22138M   23166.49962131  .00000062  00000+0  12151-3 0  9995
2 54124  87.9256 163.3261 0002334  78.5386 281.6008 13.19724025 32022
ONEWEB-0507             
1 54125U 22138N   23166.74812865  .00000080  00000+0  16825-3 0  9994
2 54125  87.9206 163.3498 0002151  79.4287 280.7088 13.19726126 32973
ONEWEB-0508             
1 54126U 22138P   23166.74389005 -.00000356  00000+0 -92062-3 0  9995
2 54126  87.9255 163.2867 0002373  70.2795 289.8594 13.19724483 32950
ONEWEB-0509             
1 54127U 22138Q   23166.49329122  .00000052  00000+0  96918-4 0  9998
2 54127  87.9256 163.3338 0002321  84.4459 275.6938 13.19726951 32028
ONEWEB-0510             
1 54128U 22138R   23166.83334491  .00000014  00000+0  00000+0 0  9992
2 54128  87.9391 132.8365 0008681 209.6653 359.5167 13.37379864 35309
ONEWEB-0511             
1 54129U 22138S   23166.71653913 -.00002823  00000+0 -70857-2 0  9995
2 54129  87.9189 163.2898 0002792  85.8920 274.2532 13.19738981 32958
ONEWEB-0512             
1 54130U 22138T   23166.55647467  .00000115  00000+0  25556-3 0  9993
2 54130  87.9224 163.3401 0002509  74.3722 285.7688 13.19727232 32035
ONEWEB-0513             
1 54131U 22138U   23166.52806115 -.00000029  00000+0 -10533-3 0  9993
2 54131  87.9317 163.2996 0002852  78.5804 281.5649 13.19726133 31911
ONEWEB-0514             
1 54132U 22138V   23166.49750353  .00000052  00000+0  97816-4 0  9996
2 54132  87.9217 163.3331 0002122  89.9022 270.2354 13.19726837 32047
ONEWEB-0515             
1 54133U 22138W   23166.83334491  .00000013  00000+0  00000+0 0  9997
2 54133  87.9548 132.9231 0009032 208.9841 157.0400 13.35856789 35309
ONEWEB-0516             
1 54134U 22138X   23166.69966995  .00000182  00000+0  42157-3 0  9992
2 54134  87.9225 163.3075 0002116  85.5793 274.5582 13.19723246 32943
ONEWEB-0517             
1 54135U 22138Y   23166.52699941  .00000072  00000+0  14821-3 0  9994
2 54135  87.9214 163.3606 0002429  81.0051 279.1356 13.19726297 32058
ONEWEB-0518             
1 54136U 22138Z   23166.54593350  .00000083  00000+0  17463-3 0  9991
2 54136  87.9212 163.3543 0002016  79.3580 280.7780 13.19727282 32050
ONEWEB-0519             
1 54137U 22138AA  23166.49540169  .00000359  00000+0  86425-3 0  9996
2 54137  87.9212 163.3290 0002497  84.4160 275.7257 13.19724311 32057
ONEWEB-0520             
1 54138U 22138AB  23166.53121193  .00000066  00000+0  13187-3 0  9994
2 54138  87.9212 163.3672 0002402  73.0897 287.0499 13.19724410 32042
ONEWEB-0521             
1 54139U 22138AC  23166.71443209  .00000041  00000+0  71267-4 0  9997
2 54139  87.9255 163.2857 0002394  92.7937 267.3470 13.19723088 32913
ONEWEB-0522             
1 54140U 22138AD  23166.54381844  .00000130  00000+0  29206-3 0  9990
2 54140  87.9217 163.3348 0002159  81.3458 278.7919 13.19727972 32033
ONEWEB-0523             
1 54141U 22138AE  23166.83334491  .00000013  00000+0  00000+0 0  9996
2 54141  87.9637 132.9290 0008975 207.9898 101.9451 13.34722181 35297
ONEWEB-0524             
1 54142U 22138AF  23166.83334491  .00000014  00000+0  00000+0 0  9998
2 54142  87.9433 132.8876 0006998 200.3755  98.1350 13.36726165 35296
ONEWEB-0525             
1 54143U 22138AG  23166.48487707  .00000083  00000+0  17451-3 0  9997
2 54143  87.9212 163.3380 0002372  79.9186 280.2214 13.19725715 32045
ONEWEB-0526             
1 54144U 22138AH  23166.74602433  .00000959  00000+0  23632-2 0  9991
2 54144  87.9219 163.2830 0002133  79.5944 280.5429 13.19721141 32922
ONEWEB-0529             
1 54145U 22138AJ  23166.52278532  .00000029  00000+0  40983-4 0  9995
2 54145  87.9224 163.3442 0002114  73.4273 286.7092 13.19726464 32046
ONEWEB-0531             
1 54146U 22138AK  23166.83334491  .00000014  00000+0  00000+0 0  9992
2 54146  87.9378 132.8671 0009855 206.5907 251.3551 13.37664267 35306
ONEWEB-0535             
1 54147U 22138AL  23166.55437994  .00000158  00000+0  36195-3 0  9991
2 54147  87.9222 163.3313 0002215  97.1036 263.0348 13.19725483 32069
ONEWEB-0536             
1 54148U 22138AM  23166.83334491  .00000013  00000+0  00000+0 0  9993
2 54148  87.9566 132.9026 0008589 197.5486 112.1080 13.35697186 35299
GSLV R/B                
1 54149U 22138AN  23166.42871419  .00001919  00000+0  20288-3 0  9995
2 54149  87.3831 139.2286 0025945 151.9623 208.3009 14.88422558 35049
ONEWEB-0527             
1 54642U 22166A   23166.34606039 -.00000013  00000+0 -61852-4 0  9998
2 54642  87.9244 102.6460 0001951  76.0562 284.0789 13.21829274 26508
ONEWEB-0528             
1 54643U 22166B   23166.35238618 -.00000033  00000+0 -11247-3 0  9998
2 54643  87.9194 102.6113 0002122  76.7796 283.3575 13.21821915 26515
ONEWEB-0539             
1 54644U 22166C   23166.39023571  .00002282  00000+0  54926-2 0  9999
2 54644  87.9223 102.5870 0002481  80.3452 279.7962 13.21817097 26511
ONEWEB-0540             
1 54645U 22166D   23166.38392598  .00000090  00000+0  18714-3 0  9998
2 54645  87.9242 102.6098 0002393  79.5210 280.6194 13.21825684 26508
ONEWEB-0542             
1 54646U 22166E   23166.32292840 -.00000512  00000+0 -12709-2 0  9990
2 54646  87.9226 102.5998 0002666  90.8244 269.3195 13.21829018 26505
ONEWEB-0545             
1 54647U 22166F   23166.36499186  .00000068  00000+0  13305-3 0  9995
2 54647  87.9241 102.6291 0002746  81.2454 278.8991 13.21827966 26471
ONEWEB-0580             
1 54648U 22166G   23166.33975380  .00000023  00000+0  23612-4 0  9992
2 54648  87.9174 102.6048 0002434  93.8137 266.3276 13.21828879 26515
ONEWEB-0582             
1 54649U 22166H   23166.37972182  .00000093  00000+0  19419-3 0  9990
2 54649  87.9239 102.6212 0002435  75.3326 284.8078 13.21828370 26495
ONEWEB-0583             
1 54650U 22166J   23166.31663732  .00000101  00000+0  21352-3 0  9993
2 54650  87.9243 102.6402 0001852  69.6081 290.5252 13.21827075 26498
